{
  "type": "FeatureCollection",
  "features": [
    {
      "type": "Feature",
      "properties": {
        "norad_id": 39773,
        "name": "EUTELSAT 3B",
        "group": "eutelsat",
        "lat": -0.0793570254674204,
        "lon": -100.82206931273414,
        "alt_km": 35769.39619331879,
        "timestamp": "2025-12-12T11:38:31.087662+00:00",
        "meta_object_name": "EUTELSAT 3B",
        "meta_object_id": "2014-030A",
        "meta_epoch": "2025-12-12T03:13:23.493216",
        "meta_mean_motion": 1.00270499,
        "meta_eccentricity": 0.0004597,
        "meta_inclination": 0.0614,
        "meta_ra_of_asc_node": 347.8073,
        "meta_arg_of_pericenter": 242.4386,
        "meta_mean_anomaly": 262.2867,
        "meta_ephemeris_type": 0,
        "meta_classification_type": "U",
        "meta_norad_cat_id": 39773,
        "meta_element_set_no": 999,
        "meta_rev_at_epoch": 4219,
        "meta_bstar": 0,
        "meta_mean_motion_dot": 2.9e-07,
        "meta_mean_motion_ddot": 0,
        "tle_line1": "1 39773U 14030A   25346.13429969  .00000029  00000+0  00000+0 0  9999",
        "tle_line2": "2 39773   0.0614 347.8073 0004597 242.4386 262.2867  1.00270499 42199"
      },
      "geometry": {
        "type": "Point",
        "coordinates": [
          -100.82206931273414,
          -0.0793570254674204
        ]
      }
    },
    {
      "type": "Feature",
      "properties": {
        "norad_id": 40425,
        "name": "EUTELSAT 115 WEST B",
        "group": "eutelsat",
        "lat": -0.01718006722091915,
        "lon": 141.15938856388445,
        "alt_km": 35785.021063400905,
        "timestamp": "2025-12-12T11:38:31.087674+00:00",
        "meta_object_name": "EUTELSAT 115 WEST B",
        "meta_object_id": "2015-010B",
        "meta_epoch": "2025-12-12T00:56:56.376096",
        "meta_mean_motion": 1.00272865,
        "meta_eccentricity": 1.78e-05,
        "meta_inclination": 0.0399,
        "meta_ra_of_asc_node": 160.4365,
        "meta_arg_of_pericenter": 343.6071,
        "meta_mean_anomaly": 196.286,
        "meta_ephemeris_type": 0,
        "meta_classification_type": "U",
        "meta_norad_cat_id": 40425,
        "meta_element_set_no": 999,
        "meta_rev_at_epoch": 3951,
        "meta_bstar": 0,
        "meta_mean_motion_dot": -1.6e-07,
        "meta_mean_motion_ddot": 0,
        "tle_line1": "1 40425U 15010B   25346.03954139 -.00000016  00000+0  00000+0 0  9992",
        "tle_line2": "2 40425   0.0399 160.4365 0000178 343.6071 196.2860  1.00272865 39514"
      },
      "geometry": {
        "type": "Point",
        "coordinates": [
          141.15938856388445,
          -0.01718006722091915
        ]
      }
    },
    {
      "type": "Feature",
      "properties": {
        "norad_id": 40875,
        "name": "EUTELSAT 8 WEST B",
        "group": "eutelsat",
        "lat": -0.0750283343592356,
        "lon": -111.94199733323478,
        "alt_km": 35768.855487953755,
        "timestamp": "2025-12-12T11:38:31.087685+00:00",
        "meta_object_name": "EUTELSAT 8 WEST B",
        "meta_object_id": "2015-039B",
        "meta_epoch": "2025-12-12T03:10:08.802912",
        "meta_mean_motion": 1.00271632,
        "meta_eccentricity": 0.0004205,
        "meta_inclination": 0.0653,
        "meta_ra_of_asc_node": 6.6681,
        "meta_arg_of_pericenter": 255.3415,
        "meta_mean_anomaly": 218.6251,
        "meta_ephemeris_type": 0,
        "meta_classification_type": "U",
        "meta_norad_cat_id": 40875,
        "meta_element_set_no": 999,
        "meta_rev_at_epoch": 3778,
        "meta_bstar": 0,
        "meta_mean_motion_dot": -5.6e-07,
        "meta_mean_motion_ddot": 0,
        "tle_line1": "1 40875U 15039B   25346.13204633 -.00000056  00000+0  00000+0 0  9994",
        "tle_line2": "2 40875   0.0653   6.6681 0004205 255.3415 218.6251  1.00271632 37785"
      },
      "geometry": {
        "type": "Point",
        "coordinates": [
          -111.94199733323478,
          -0.0750283343592356
        ]
      }
    },
    {
      "type": "Feature",
      "properties": {
        "norad_id": 41310,
        "name": "EUTELSAT 9B",
        "group": "eutelsat",
        "lat": -0.031875164417677314,
        "lon": -94.94504037488527,
        "alt_km": 35766.86285955905,
        "timestamp": "2025-12-12T11:38:31.087697+00:00",
        "meta_object_name": "EUTELSAT 9B",
        "meta_object_id": "2016-005A",
        "meta_epoch": "2025-12-11T22:06:55.623168",
        "meta_mean_motion": 1.00269719,
        "meta_eccentricity": 0.0004684,
        "meta_inclination": 0.0432,
        "meta_ra_of_asc_node": 62.511,
        "meta_arg_of_pericenter": 207.2212,
        "meta_mean_anomaly": 151.8834,
        "meta_ephemeris_type": 0,
        "meta_classification_type": "U",
        "meta_norad_cat_id": 41310,
        "meta_element_set_no": 999,
        "meta_rev_at_epoch": 3623,
        "meta_bstar": 0,
        "meta_mean_motion_dot": 7e-07,
        "meta_mean_motion_ddot": 0,
        "tle_line1": "1 41310U 16005A   25345.92147712  .00000070  00000+0  00000+0 0  9998",
        "tle_line2": "2 41310   0.0432  62.5110 0004684 207.2212 151.8834  1.00269719 36232"
      },
      "geometry": {
        "type": "Point",
        "coordinates": [
          -94.94504037488527,
          -0.031875164417677314
        ]
      }
    },
    {
      "type": "Feature",
      "properties": {
        "norad_id": 41382,
        "name": "EUTELSAT 65 WEST A",
        "group": "eutelsat",
        "lat": -0.00693052458623147,
        "lon": -169.1723927304335,
        "alt_km": 35783.72888730621,
        "timestamp": "2025-12-12T11:38:31.087708+00:00",
        "meta_object_name": "EUTELSAT 65 WEST A",
        "meta_object_id": "2016-014A",
        "meta_epoch": "2025-12-12T02:53:55.355712",
        "meta_mean_motion": 1.002721,
        "meta_eccentricity": 0.0002529,
        "meta_inclination": 0.0516,
        "meta_ra_of_asc_node": 12.9642,
        "meta_arg_of_pericenter": 255.5076,
        "meta_mean_anomaly": 150.8816,
        "meta_ephemeris_type": 0,
        "meta_classification_type": "U",
        "meta_norad_cat_id": 41382,
        "meta_element_set_no": 999,
        "meta_rev_at_epoch": 3565,
        "meta_bstar": 0,
        "meta_mean_motion_dot": -2.67e-06,
        "meta_mean_motion_ddot": 0,
        "tle_line1": "1 41382U 16014A   25346.12077958 -.00000267  00000+0  00000+0 0  9993",
        "tle_line2": "2 41382   0.0516  12.9642 0002529 255.5076 150.8816  1.00272100 35655"
      },
      "geometry": {
        "type": "Point",
        "coordinates": [
          -169.1723927304335,
          -0.00693052458623147
        ]
      }
    },
    {
      "type": "Feature",
      "properties": {
        "norad_id": 41589,
        "name": "EUTELSAT 117 WEST B",
        "group": "eutelsat",
        "lat": -0.0026017150766061378,
        "lon": 139.09308476714764,
        "alt_km": 35785.0849369434,
        "timestamp": "2025-12-12T11:38:31.087720+00:00",
        "meta_object_name": "EUTELSAT 117 WEST B",
        "meta_object_id": "2016-038B",
        "meta_epoch": "2025-12-11T23:13:36.273216",
        "meta_mean_motion": 1.00275784,
        "meta_eccentricity": 5.99e-05,
        "meta_inclination": 0.0087,
        "meta_ra_of_asc_node": 154.6922,
        "meta_arg_of_pericenter": 250.9411,
        "meta_mean_anomaly": 266.7128,
        "meta_ephemeris_type": 0,
        "meta_classification_type": "U",
        "meta_norad_cat_id": 41589,
        "meta_element_set_no": 999,
        "meta_rev_at_epoch": 3478,
        "meta_bstar": 0,
        "meta_mean_motion_dot": -4e-08,
        "meta_mean_motion_ddot": 0,
        "tle_line1": "1 41589U 16038B   25345.96778094 -.00000004  00000+0  00000+0 0  9997",
        "tle_line2": "2 41589   0.0087 154.6922 0000599 250.9411 266.7128  1.00275784 34786"
      },
      "geometry": {
        "type": "Point",
        "coordinates": [
          139.09308476714764,
          -0.0026017150766061378
        ]
      }
    },
    {
      "type": "Feature",
      "properties": {
        "norad_id": 42741,
        "name": "EUTELSAT 172B",
        "group": "eutelsat",
        "lat": -0.024655597045055738,
        "lon": 68.04328068281885,
        "alt_km": 35786.70977045263,
        "timestamp": "2025-12-12T11:38:31.087732+00:00",
        "meta_object_name": "EUTELSAT 172B",
        "meta_object_id": "2017-029B",
        "meta_epoch": "2025-12-12T02:18:51.215904",
        "meta_mean_motion": 1.00269868,
        "meta_eccentricity": 5.7e-06,
        "meta_inclination": 0.0441,
        "meta_ra_of_asc_node": 151.278,
        "meta_arg_of_pericenter": 161.8007,
        "meta_mean_anomaly": 334.6731,
        "meta_ephemeris_type": 0,
        "meta_classification_type": "U",
        "meta_norad_cat_id": 42741,
        "meta_element_set_no": 999,
        "meta_rev_at_epoch": 3185,
        "meta_bstar": 0,
        "meta_mean_motion_dot": 3e-08,
        "meta_mean_motion_ddot": 0,
        "tle_line1": "1 42741U 17029B   25346.09642611  .00000003  00000+0  00000+0 0  9997",
        "tle_line2": "2 42741   0.0441 151.2780 0000057 161.8007 334.6731  1.00269868 31852"
      },
      "geometry": {
        "type": "Point",
        "coordinates": [
          68.04328068281885,
          -0.024655597045055738
        ]
      }
    }
  ]
}